CARTOSAT-2E             
1 42767U 17036C   26166.46381530  .00002189  00000+0  10711-3 0  9996
2 42767  97.4280 226.2946 0002599 330.1531  29.9555 15.19241169497880
IRIDIUM 113             
1 42803U 17039A   26166.49614813  .00000027  00000+0  27496-5 0  9995
2 42803  86.3968 322.8857 0002284  89.3664 270.7793 14.34217791470944
NORSAT 2                
1 42828U 17042D   26166.44969294  .00008002  00000+0  35396-3 0  9994
2 42828  97.4030 339.9175 0010572  62.6635 297.5676 15.21897075487476
TECHNOSAT               
1 42829U 17042E   26166.38757556  .00003540  00000+0  25302-3 0  9992
2 42829  97.4276 324.1135 0018842  99.9086 260.4269 15.04949456486436
FLYING LAPTOP           
1 42831U 17042G   26166.51907706  .00003525  00000+0  27856-3 0  9993
2 42831  97.4672 322.1159 0019506 127.1002 233.2009 15.01137353486200
WNISAT 1R               
1 42835U 17042L   26166.42615425  .00001946  00000+0  15377-3 0  9991
2 42835  97.4833 322.6111 0010953 153.0301 207.1495 15.01756104486247
LEMUR-2-GREENBERG       
1 42837U 17042N   26166.45337145  .00013308  00000+0  44222-3 0  9992
2 42837  97.3810 347.0859 0008689  20.1701 339.9882 15.31281707488122
LEMUR-2-FURIAUS         
1 42840U 17042R   26166.44594397  .00014384  00000+0  49395-3 0  9990
2 42840  97.3762 345.0379 0008238  74.3818 285.8331 15.30202181487942
CORVUS BC2              
1 42846U 17042X   26166.40124384  .00003591  00000+0  24801-3 0  9990
2 42846  97.4057 327.8202 0014226 116.1599 244.1094 15.06284861486798
CORVUS BC1              
1 42847U 17042Y   26166.39605622  .00003410  00000+0  23472-3 0  9991
2 42847  97.4092 328.6281 0013241  94.7493 265.5247 15.06455609486825
VRSS-2                  
1 42954U 17060A   26166.49824130  .00000753  00000+0  10296-3 0  9995
2 42954  97.6515 204.3013 0018585 103.7065 256.6218 14.81192556468203
MOHAMMED VI-A           
1 43005U 17070A   26166.51734292  .00000987  00000+0  14704-3 0  9993
2 43005  97.9566 238.8714 0001403  73.5945 286.5420 14.77069294463739
FENGYUN 3D              
1 43010U 17072A   26166.52643919 -.00000056  00000+0 -44675-5 0  9998
2 43010  99.0118 140.9187 0002593  64.9063 295.2381 14.19739073444753
NOAA 20 (JPSS-1)        
1 43013U 17073A   26166.45063382  .00000028  00000+0  34483-4 0  9996
2 43013  98.7772 105.9287 0000291  83.1943 276.9266 14.19511360444220
MAKERSAT 0              
1 43016U 17073D   26166.15522328  .00014625  00000+0  39907-3 0  9999
2 43016  97.4630  48.6587 0105182 280.3452  78.5946 15.32039776466158
RADFXSAT (FOX-1B)       
1 43017U 17073E   26166.42200516  .00007151  00000+0  31325-3 0  9994
2 43017  97.4706  33.6731 0149803 335.4112  24.0025 15.12695557465124
JILIN-1 04              
1 43022U 17074A   26166.46433940  .00010684  00000+0  24926-3 0  9998
2 43022  97.4865 276.0303 0004017 184.2217 175.8997 15.42405579474003
JILIN-1 05              
1 43023U 17074B   26166.55549975  .00007207  00000+0  22253-3 0  9993
2 43023  97.4869 272.6870 0004235 220.7524 139.3402 15.33854493473758
JILIN-1 06              
1 43024U 17074C   26166.52688976  .00005086  00000+0  15867-3 0  9992
2 43024  97.4796 269.6699 0005572 237.6990 122.3713 15.33676841473589
IRIDIUM 116             
1 43072U 17083C   26166.47077677  .00000033  00000+0  45536-5 0  9994
2 43072  86.3961 322.7191 0001938  97.7660 262.3756 14.34217875443927
IRIDIUM 130             
1 43073U 17083D   26166.50883184  .00000031  00000+0  40603-5 0  9995
2 43073  86.3970 322.9783 0001930  91.6475 268.4941 14.34217815443877
LKW-2                   
1 43080U 17084A   26166.52064414  .00008225  00000+0  31935-3 0  9992
2 43080  97.1190 206.3946 0000881 180.9561 179.1677 15.26325412471439
SUPERVIEW-1 03          
1 43099U 18002A   26166.47550881  .00013445  00000+0  33479-3 0  9990
2 43099  97.3141 251.3152 0047076 185.6481 174.4241 15.39203354468105
CARTOSAT-2F             
1 43111U 18004A   26166.49594897  .00003691  00000+0  17862-3 0  9994
2 43111  97.4796 226.1470 0000571 223.1144 137.0045 15.19205267467078
LKW-3                   
1 43146U 18006A   26166.55474549  .00007532  00000+0  22279-3 0  9998
2 43146  97.6603 327.0646 0002188 331.8138  28.2986 15.35219022468468
ASNARO-2                
1 43152U 18007A   26166.54285291  .00007565  00000+0  33003-3 0  9992
2 43152  97.3965 173.4959 0001716  90.5340 269.6093 15.22433442467169
JILIN-1 07              
1 43159U 18008E   26166.52813604  .00007887  00000+0  23644-3 0  9990
2 43159  97.1764 186.5009 0009987  70.2226 290.0093 15.34699411464740
JILIN-1 08              
1 43160U 18008F   26166.52727962  .00005986  00000+0  18588-3 0  9992
2 43160  97.1797 185.8183 0008060  84.6506 275.5656 15.33697734464696
